{
  "norad_id": 61192,
  "name": "JILIN-01 KUANFU 02B 4",
  "history": [
    {
      "epoch": "2026-03-28T22:08:22.333344Z",
      "apogee_km": 544.4955769353328,
      "perigee_km": 531.4164151486584,
      "latitude_deg": 1.617550961270738e-05,
      "longitude_deg": 19.59796785458342,
      "height_km": 547.4784637063999,
      "semi_major_axis_km": 6916.092996041995,
      "eccentricity": 0.00094556,
      "inclination_deg": 97.5515,
      "raan_deg": 178.027,
      "arg_perigee_deg": 189.6468,
      "mean_anomaly_deg": 170.4581,
      "mean_motion_rev_day": 15.09424954
    },
    {
      "epoch": "2026-03-29T04:30:12.885696Z",
      "apogee_km": 544.484409953573,
      "perigee_km": 531.3895155125347,
      "latitude_deg": 5.042414486689266e-05,
      "longitude_deg": -75.86283332672764,
      "height_km": 547.4861995297839,
      "semi_major_axis_km": 6916.073962733053,
      "eccentricity": 0.0009467,
      "inclination_deg": 97.5516,
      "raan_deg": 178.2882,
      "arg_perigee_deg": 188.5849,
      "mean_anomaly_deg": 171.522,
      "mean_motion_rev_day": 15.09431185
    },
    {
      "epoch": "2026-03-30T04:22:07.002336Z",
      "apogee_km": 544.4800397408881,
      "perigee_km": 531.3119129539227,
      "latitude_deg": -4.067075126905023e-05,
      "longitude_deg": -73.83930874766408,
      "height_km": 547.5304170065243,
      "semi_major_axis_km": 6916.032976347405,
      "eccentricity": 0.000952,
      "inclination_deg": 97.5516,
      "raan_deg": 179.2673,
      "arg_perigee_deg": 184.8957,
      "mean_anomaly_deg": 175.218,
      "mean_motion_rev_day": 15.09444603
    },
    {
      "epoch": "2026-03-30T05:57:34.574112Z",
      "apogee_km": 544.4800836089671,
      "perigee_km": 531.3040799640921,
      "latitude_deg": -2.2498983699140167e-05,
      "longitude_deg": -97.70433319308933,
      "height_km": 547.5328371472408,
      "semi_major_axis_km": 6916.02908178653,
      "eccentricity": 0.00095257,
      "inclination_deg": 97.5517,
      "raan_deg": 179.3325,
      "arg_perigee_deg": 184.6393,
      "mean_anomaly_deg": 175.4749,
      "mean_motion_rev_day": 15.09445878
    },
    {
      "epoch": "2026-03-30T13:54:52.387200Z",
      "apogee_km": 544.4996418472601,
      "perigee_km": 531.2529865857432,
      "latitude_deg": 2.046237190942478e-05,
      "longitude_deg": 142.97164221669212,
      "height_km": 547.5628333128989,
      "semi_major_axis_km": 6916.013314216501,
      "eccentricity": 0.00095768,
      "inclination_deg": 97.5521,
      "raan_deg": 179.6594,
      "arg_perigee_deg": 183.278,
      "mean_anomaly_deg": 176.8388,
      "mean_motion_rev_day": 15.0945104
    }
  ]
}